INNOSAT 3 (RS92S0)      
1 64894U 25155U   26171.22918553  .00033406  00000+0  73183-3 0  9991
2 64894  97.4490 142.7980 0006956 143.6194 216.5528 15.44012811 81433
KNACKSAT-2              
1 67683U 98067XZ  26170.59247606  .00040473  00000+0  49084-3 0  9990
2 67683  51.6307 282.3774 0008934 225.7617 134.2643 15.60167582 20658
